{"fetched_at":"2026-07-20T07:40:28.790Z","source":"https://celestrak.org/NORAD/elements/gp.php?GROUP=spire&FORMAT=JSON","constellation":"spire","records":[{"OBJECT_NAME":"LEMUR-2-LEIA-PHILIP","OBJECT_ID":"2025-052AN","EPOCH":"2026-07-19T16:20:12.028128","CLASSIFICATION_TYPE":"U","MEAN_MOTION":14.97392896,"ECCENTRICITY":0.0005043,"INCLINATION":97.6792,"RA_OF_ASC_NODE":92.0799,"ARG_OF_PERICENTER":110.2054,"MEAN_ANOMALY":249.9711,"EPHEMERIS_TYPE":0,"NORAD_CAT_ID":63246,"ELEMENT_SET_NO":999,"REV_AT_EPOCH":7353,"BSTAR":0.000010245,"MEAN_MOTION_DOT":6.2e-7,"MEAN_MOTION_DDOT":0},{"OBJECT_NAME":"LEMUR-2-LIA-MARTIN","OBJECT_ID":"2025-052AQ","EPOCH":"2026-07-19T06:32:27.764448","CLASSIFICATION_TYPE":"U","MEAN_MOTION":14.9804358,"ECCENTRICITY":0.00050463,"INCLINATION":97.6853,"RA_OF_ASC_NODE":92.2046,"ARG_OF_PERICENTER":79.9145,"MEAN_ANOMALY":280.2647,"EPHEMERIS_TYPE":0,"NORAD_CAT_ID":63248,"ELEMENT_SET_NO":999,"REV_AT_EPOCH":7348,"BSTAR":0.00010888573,"MEAN_MOTION_DOT":0.00001229,"MEAN_MOTION_DDOT":0},{"OBJECT_NAME":"LEMUR-2-DELOITTE-1","OBJECT_ID":"2025-052BB","EPOCH":"2026-07-19T20:31:05.289312","CLASSIFICATION_TYPE":"U","MEAN_MOTION":14.9780476,"ECCENTRICITY":0.0002532,"INCLINATION":97.6885,"RA_OF_ASC_NODE":93.1078,"ARG_OF_PERICENTER":58.0669,"MEAN_ANOMALY":302.0799,"EPHEMERIS_TYPE":0,"NORAD_CAT_ID":63259,"ELEMENT_SET_NO":999,"REV_AT_EPOCH":7358,"BSTAR":0.00020637,"MEAN_MOTION_DOT":0.00002366,"MEAN_MOTION_DDOT":0},{"OBJECT_NAME":"LEMUR-2-EMERSONROSE","OBJECT_ID":"2025-052BD","EPOCH":"2026-07-19T06:19:49.369440","CLASSIFICATION_TYPE":"U","MEAN_MOTION":14.99310415,"ECCENTRICITY":0.00024822,"INCLINATION":97.6885,"RA_OF_ASC_NODE":93.1485,"ARG_OF_PERICENTER":50.647,"MEAN_ANOMALY":309.4973,"EPHEMERIS_TYPE":0,"NORAD_CAT_ID":63261,"ELEMENT_SET_NO":999,"REV_AT_EPOCH":7354,"BSTAR":0.00018657293,"MEAN_MOTION_DOT":0.0000222,"MEAN_MOTION_DDOT":0},{"OBJECT_NAME":"LEMUR-2-MARACHE-FRAN","OBJECT_ID":"2025-052BE","EPOCH":"2026-07-19T16:24:46.489824","CLASSIFICATION_TYPE":"U","MEAN_MOTION":15.00330612,"ECCENTRICITY":0.0005734,"INCLINATION":97.6816,"RA_OF_ASC_NODE":93.9341,"ARG_OF_PERICENTER":234.6437,"MEAN_ANOMALY":125.4251,"EPHEMERIS_TYPE":0,"NORAD_CAT_ID":63262,"ELEMENT_SET_NO":999,"REV_AT_EPOCH":7363,"BSTAR":0.00012728,"MEAN_MOTION_DOT":0.00001537,"MEAN_MOTION_DDOT":0},{"OBJECT_NAME":"LEMUR-2-THEFALCONER","OBJECT_ID":"2025-052BG","EPOCH":"2026-07-19T16:27:18.332640","CLASSIFICATION_TYPE":"U","MEAN_MOTION":14.97573199,"ECCENTRICITY":0.000064,"INCLINATION":97.6815,"RA_OF_ASC_NODE":92.5267,"ARG_OF_PERICENTER":226.4007,"MEAN_ANOMALY":133.7162,"EPHEMERIS_TYPE":0,"NORAD_CAT_ID":63264,"ELEMENT_SET_NO":999,"REV_AT_EPOCH":7355,"BSTAR":0.000098723,"MEAN_MOTION_DOT":0.00001095,"MEAN_MOTION_DDOT":0},{"OBJECT_NAME":"LEMUR-2-UNTITLED-SC","OBJECT_ID":"2025-061A","EPOCH":"2026-07-19T21:06:31.967424","CLASSIFICATION_TYPE":"U","MEAN_MOTION":15.13663233,"ECCENTRICITY":0.0019631,"INCLINATION":97.5661,"RA_OF_ASC_NODE":176.011,"ARG_OF_PERICENTER":147.4932,"MEAN_ANOMALY":212.7513,"EPHEMERIS_TYPE":0,"NORAD_CAT_ID":63351,"ELEMENT_SET_NO":999,"REV_AT_EPOCH":7253,"BSTAR":0.00010358,"MEAN_MOTION_DOT":0.00001804,"MEAN_MOTION_DDOT":0},{"OBJECT_NAME":"LEMUR-2-ESPERANZA","OBJECT_ID":"2025-061B","EPOCH":"2026-07-19T18:55:21.239328","CLASSIFICATION_TYPE":"U","MEAN_MOTION":15.13768965,"ECCENTRICITY":0.0019256,"INCLINATION":97.5667,"RA_OF_ASC_NODE":176.0218,"ARG_OF_PERICENTER":147.1716,"MEAN_ANOMALY":213.0716,"EPHEMERIS_TYPE":0,"NORAD_CAT_ID":63352,"ELEMENT_SET_NO":999,"REV_AT_EPOCH":7252,"BSTAR":0.000099031,"MEAN_MOTION_DOT":0.00001726,"MEAN_MOTION_DDOT":0},{"OBJECT_NAME":"LEMUR-2-KREMPEL-BRO2","OBJECT_ID":"2025-061C","EPOCH":"2026-07-19T17:45:38.979072","CLASSIFICATION_TYPE":"U","MEAN_MOTION":15.14195662,"ECCENTRICITY":0.0020387,"INCLINATION":97.5712,"RA_OF_ASC_NODE":176.5485,"ARG_OF_PERICENTER":140.294,"MEAN_ANOMALY":219.9788,"EPHEMERIS_TYPE":0,"NORAD_CAT_ID":63353,"ELEMENT_SET_NO":999,"REV_AT_EPOCH":7253,"BSTAR":0.00010091,"MEAN_MOTION_DOT":0.00001783,"MEAN_MOTION_DDOT":0},{"OBJECT_NAME":"LEMUR-2-THERMORAPTOR","OBJECT_ID":"2025-061D","EPOCH":"2026-07-19T20:27:36.241920","CLASSIFICATION_TYPE":"U","MEAN_MOTION":15.14279673,"ECCENTRICITY":0.0020106,"INCLINATION":97.5719,"RA_OF_ASC_NODE":176.7423,"ARG_OF_PERICENTER":138.8908,"MEAN_ANOMALY":221.3843,"EPHEMERIS_TYPE":0,"NORAD_CAT_ID":63354,"ELEMENT_SET_NO":999,"REV_AT_EPOCH":7255,"BSTAR":0.00010479,"MEAN_MOTION_DOT":0.00001859,"MEAN_MOTION_DDOT":0},{"OBJECT_NAME":"LEMUR-2-NEUROSPICY","OBJECT_ID":"2025-061E","EPOCH":"2026-07-19T19:43:10.713792","CLASSIFICATION_TYPE":"U","MEAN_MOTION":15.14398406,"ECCENTRICITY":0.0017868,"INCLINATION":97.5647,"RA_OF_ASC_NODE":176.3126,"ARG_OF_PERICENTER":141.7851,"MEAN_ANOMALY":218.4651,"EPHEMERIS_TYPE":0,"NORAD_CAT_ID":63355,"ELEMENT_SET_NO":999,"REV_AT_EPOCH":7255,"BSTAR":0.0001059,"MEAN_MOTION_DOT":0.00001883,"MEAN_MOTION_DDOT":0},{"OBJECT_NAME":"LEMUR-2-TILLINFINITY","OBJECT_ID":"2025-061F","EPOCH":"2026-07-19T20:15:50.893056","CLASSIFICATION_TYPE":"U","MEAN_MOTION":15.14983518,"ECCENTRICITY":0.0019366,"INCLINATION":97.5631,"RA_OF_ASC_NODE":176.6485,"ARG_OF_PERICENTER":130.7938,"MEAN_ANOMALY":229.4978,"EPHEMERIS_TYPE":0,"NORAD_CAT_ID":63356,"ELEMENT_SET_NO":999,"REV_AT_EPOCH":7258,"BSTAR":0.00010878,"MEAN_MOTION_DOT":0.00001971,"MEAN_MOTION_DDOT":0},{"OBJECT_NAME":"LEMUR-2-KREMPEL-BRO1","OBJECT_ID":"2025-061G","EPOCH":"2026-07-19T21:18:46.711296","CLASSIFICATION_TYPE":"U","MEAN_MOTION":15.14789895,"ECCENTRICITY":0.0020022,"INCLINATION":97.5633,"RA_OF_ASC_NODE":176.5989,"ARG_OF_PERICENTER":132.0054,"MEAN_ANOMALY":228.2886,"EPHEMERIS_TYPE":0,"NORAD_CAT_ID":63357,"ELEMENT_SET_NO":999,"REV_AT_EPOCH":7258,"BSTAR":0.0001047,"MEAN_MOTION_DOT":0.00001884,"MEAN_MOTION_DDOT":0},{"OBJECT_NAME":"LEMUR-2-LANGER2SPACE","OBJECT_ID":"2025-061H","EPOCH":"2026-07-19T11:00:24.552864","CLASSIFICATION_TYPE":"U","MEAN_MOTION":15.14481364,"ECCENTRICITY":0.00177577,"INCLINATION":97.5636,"RA_OF_ASC_NODE":175.9728,"ARG_OF_PERICENTER":141.3528,"MEAN_ANOMALY":218.8979,"EPHEMERIS_TYPE":0,"NORAD_CAT_ID":63358,"ELEMENT_SET_NO":999,"REV_AT_EPOCH":7250,"BSTAR":0.0001012503,"MEAN_MOTION_DOT":0.00001802,"MEAN_MOTION_DDOT":0},{"OBJECT_NAME":"LEMUR-2-BALTO","OBJECT_ID":"2025-052BH","EPOCH":"2026-07-19T06:25:49.045728","CLASSIFICATION_TYPE":"U","MEAN_MOTION":15.00383313,"ECCENTRICITY":0.00049945,"INCLINATION":97.6919,"RA_OF_ASC_NODE":93.517,"ARG_OF_PERICENTER":310.0792,"MEAN_ANOMALY":49.9993,"EPHEMERIS_TYPE":0,"NORAD_CAT_ID":63395,"ELEMENT_SET_NO":999,"REV_AT_EPOCH":7357,"BSTAR":0.00017242798,"MEAN_MOTION_DOT":0.00002106,"MEAN_MOTION_DDOT":0},{"OBJECT_NAME":"LEMUR-2-KRISH","OBJECT_ID":"2025-135AK","EPOCH":"2026-07-19T18:34:45.575040","CLASSIFICATION_TYPE":"U","MEAN_MOTION":14.96465771,"ECCENTRICITY":0.0001123,"INCLINATION":97.7764,"RA_OF_ASC_NODE":315.4353,"ARG_OF_PERICENTER":105.4516,"MEAN_ANOMALY":254.6829,"EPHEMERIS_TYPE":0,"NORAD_CAT_ID":64561,"ELEMENT_SET_NO":999,"REV_AT_EPOCH":5879,"BSTAR":0.00017945,"MEAN_MOTION_DOT":0.00001978,"MEAN_MOTION_DDOT":0}]}
